FLOCK 4BE-17            
1 60492U 24149AA  26189.72695059  .00011296  00000+0  28107-3 0  9999
2 60492  97.3765 273.2745 0003931 162.8357 197.3023 15.40434288105570
FLOCK 4BE-22            
1 60494U 24149AC  26190.20822575  .00012504  00000+0  29658-3 0  9996
2 60494  97.3733 273.9865 0004276 171.8142 188.3176 15.41857225105695
FLOCK 4BE-34            
1 60495U 24149AD  26189.77135223  .00011999  00000+0  28513-3 0  9990
2 60495  97.3774 274.3812 0004183 179.9988 180.1260 15.41812306105653
FLOCK 4BE-32            
1 60497U 24149AF  26189.79009742  .00013635  00000+0  31189-3 0  9992
2 60497  97.3712 273.9609 0004383 177.0530 183.0744 15.42925610105664
FLOCK 4BE-11            
1 60501U 24149AK  26189.77339707  .00013915  00000+0  30993-3 0  9996
2 60501  97.3692 274.1945 0004455 177.0967 183.0308 15.43716945105685
FLOCK 4BE-24            
1 60505U 24149AP  26189.75797138  .00015720  00000+0  34742-3 0  9996
2 60505  97.3708 274.4441 0004456 189.5700 170.5464 15.43919955105696
FLOCK 4BE-29            
1 60509U 24149AT  26189.81898487  .00031858  00000+0  67382-3 0  9992
2 60509  97.3804 276.0285 0003006 192.2560 167.8616 15.45081386105751
FLOCK 4BE-2             
1 60511U 24149AV  26190.66126500  .00051489  00000+0  75479-3 0  9998
2 60511  97.3824 278.6387 0005091 188.0676 172.0497 15.55382059105997
FLOCK 4BE-13            
1 60512U 24149AW  26189.76290344  .00010647  00000+0  24764-3 0  9998
2 60512  97.3713 274.4064 0004596 175.1537 184.9756 15.42489198105698
FLOCK 4BE-27            
1 60513U 24149AX  26190.75503846  .00006856  00000+0  20523-3 0  9990
2 60513  97.3821 272.6217 0003419 200.8149 159.2956 15.34852169105608
FLOCK 4BE-9             
1 60514U 24149AY  26190.03653995  .00011231  00000+0  27016-3 0  9990
2 60514  97.3785 274.5287 0003091 188.6470 171.4725 15.41465848105682
FLOCK 4BE-6             
1 60516U 24149BA  26189.75809424  .00010837  00000+0  27191-3 0  9994
2 60516  97.3783 273.5644 0003689 193.1062 167.0089 15.40192015105595
FLOCK 4BE-14            
1 60517U 24149BB  26190.17571948  .00013917  00000+0  33130-3 0  9992
2 60517  97.3690 274.1426 0004654 196.4822 163.6274 15.41719707105717
FLOCK 4BE-1             
1 60518U 24149BC  26190.03884739  .00013252  00000+0  29887-3 0  9999
2 60518  97.3773 275.3610 0004434 196.2754 163.8352 15.43357693105742
FLOCK 4BE-28            
1 60519U 24149BD  26189.76093466  .00034150  00000+0  70235-3 0  9990
2 60519  97.3740 275.8716 0004426 193.5575 166.5556 15.45886309105773
FLOCK 4BE-5             
1 60559U 24149CV  26189.78634678  .00011017  00000+0  26995-3 0  9993
2 60559  97.3837 274.0026 0003371 190.9635 169.1539 15.40910074105609
